IRIDIUM 144             
1 43249U 18030A   23318.09972461  .00000214  00000+0  69477-4 0  9992
2 43249  86.3944 325.8262 0002310  92.3113 267.8347 14.34213906294556
IRIDIUM 149             
1 43250U 18030B   23318.10606798  .00000156  00000+0  48731-4 0  9998
2 43250  86.3943 325.8010 0002461  93.5984 266.5493 14.34213054294556
IRIDIUM 157             
1 43251U 18030C   23317.77624117  .00000204  00000+0  65683-4 0  9995
2 43251  86.3944 325.9712 0002011  88.8221 271.3205 14.34216801294480
IRIDIUM 140             
1 43252U 18030D   23318.07434952  .00000209  00000+0  67649-4 0  9995
2 43252  86.3946 325.8613 0002327  99.6308 260.5151 14.34215456294584
IRIDIUM 145             
1 43253U 18030E   23317.50351843  .00000195  00000+0  62566-4 0  9997
2 43253  86.3946 326.0745 0002539  94.4262 265.7224 14.34212593294432
IRIDIUM 146             
1 43254U 18030F   23318.11240042  .00000234  00000+0  76432-4 0  9995
2 43254  86.3945 325.8351 0002529  91.5651 268.5834 14.34216818294534
IRIDIUM 148             
1 43255U 18030G   23318.08069860  .00000211  00000+0  68178-4 0  9992
2 43255  86.3947 325.8774 0002481  86.3016 273.8463 14.34213840294573
IRIDIUM 142             
1 43256U 18030H   23317.76990762  .00000207  00000+0  66894-4 0  9999
2 43256  86.3942 325.9306 0002392  87.9272 272.2197 14.34213235294488
